{
  "65440": {
    "noradId": "65440",
    "tle": [
      "1 65440C 25194G   26002.78451389  .00008532  00000+0  59250-3 0    21",
      "2 65440  97.6023 219.4959 0002165  89.5525 318.6681 15.05636802    15"
    ]
  },
  "65441": {
    "noradId": "65441",
    "tle": [
      "1 65441C 25194H   26002.78451389  .00009033  00000+0  62729-3 0    24",
      "2 65441  97.6012 219.3866 0001394  90.0720  63.1844 15.05639159    18"
    ]
  },
  "65442": {
    "noradId": "65442",
    "tle": [
      "1 65442C 25194J   26002.78659722  .00009619  00000+0  66798-3 0    26",
      "2 65442  97.6035 219.4780 0002376  87.2733 287.2404 15.05636500    11"
    ]
  },
  "65443": {
    "noradId": "65443",
    "tle": [
      "1 65443C 25194K   26002.78104167 -.00015739  00000+0 -10923-2 0    25",
      "2 65443  97.6015 219.3961 0001812  86.5559  77.8808 15.05685455    16"
    ]
  },
  "65444": {
    "noradId": "65444",
    "tle": [
      "1 65444C 25194L   26002.78381944  .00010070  00000+0  69931-3 0    21",
      "2 65444  97.6032 219.4295 0002131  87.6468 166.8433 15.05635154    17"
    ]
  },
  "65445": {
    "noradId": "65445",
    "tle": [
      "1 65445C 25194M   26002.78659722  .00010320  00000+0  71671-3 0    26",
      "2 65445  97.6033 219.4449 0002312  90.8106 208.7226 15.05634586    10"
    ]
  },
  "65446": {
    "noradId": "65446",
    "tle": [
      "1 65446C 25194N   26002.78243056  .00010087  00000+0  70055-3 0    21",
      "2 65446  97.6035 219.4605 0002446  92.5845 229.3684 15.05633293    15"
    ]
  },
  "65447": {
    "noradId": "65447",
    "tle": [
      "1 65447C 25194P   26002.78798611  .00009033  00000+0  62733-3 0    27",
      "2 65447  97.6027 219.4928 0002515  87.9251 324.1109 15.05635570    17"
    ]
  },
  "65448": {
    "noradId": "65448",
    "tle": [
      "1 65448C 25194Q   26002.78729167  .00010355  00000+0  71910-3 0    24",
      "2 65448  97.6028 219.4201 0001923  92.1902 151.1144 15.05636094    15"
    ]
  },
  "65449": {
    "noradId": "65449",
    "tle": [
      "1 65449C 25194R   26002.78868056 -.00016447  00000+0 -11431-2 0    27",
      "2 65449  97.6012 219.5128 0001735  86.2436  14.6575 15.05634623    12"
    ]
  },
  "65450": {
    "noradId": "65450",
    "tle": [
      "1 65450C 25194S   26002.78173611  .00008280  00000+0  57498-3 0    23",
      "2 65450  97.6011 219.3654 0002005  81.7482  11.4771 15.05637977    15"
    ]
  },
  "65451": {
    "noradId": "65451",
    "tle": [
      "1 65451C 25194T   26002.78312500  .00022563  00000+0  15689-2 0    21",
      "2 65451  97.6033 219.4356 0002096  88.6879 177.0631 15.05574526    10"
    ]
  },
  "65452": {
    "noradId": "65452",
    "tle": [
      "1 65452C 25194U   26002.78312500  .00009967  00000+0  69216-3 0    21",
      "2 65452  97.6020 219.4052 0001895  81.1671 109.5685 15.05637448    16"
    ]
  },
  "65453": {
    "noradId": "65453",
    "tle": [
      "1 65453C 25194V   26002.78520833  .00008252  00000+0  65753-3 0    20",
      "2 65453  97.6037 220.9948 0003063  33.1559 157.1772 15.00437727    16"
    ]
  },
  "65454": {
    "noradId": "65454",
    "tle": [
      "1 65454C 25194W   26002.78798611  .00008531  00000+0  67967-3 0    21",
      "2 65454  97.6047 220.5360 0004014  52.9469 192.7045 15.00438245    12"
    ]
  },
  "65455": {
    "noradId": "65455",
    "tle": [
      "1 65455C 25194X   26002.78659722  .00009201  00000+0  63899-3 0    26",
      "2 65455  97.6011 219.3830 0001964  81.7227  67.8330 15.05637223    16"
    ]
  },
  "65456": {
    "noradId": "65456",
    "tle": [
      "1 65456C 25194Y   26002.78173611  .00008737  00000+0  60648-3 0    27",
      "2 65456  97.6017 219.5004 0001764  90.0737 317.9828 15.05651643    18"
    ]
  },
  "65457": {
    "noradId": "65457",
    "tle": [
      "1 65457C 25194Z   26002.78243056  .00009558  00000+0  66372-3 0    21",
      "2 65457  97.6014 219.3909 0001748  91.3136  65.6646 15.05637682    19"
    ]
  },
  "65458": {
    "noradId": "65458",
    "tle": [
      "1 65458C 25195A   26002.78173611  .00018148  00000+0  61174-3 0    22",
      "2 65458  53.1560 204.1119 0001171  83.4383 357.4798 15.30168853    11"
    ]
  },
  "65459": {
    "noradId": "65459",
    "tle": [
      "1 65459C 25195B   26002.78868056 -.00004306  00000+0 -14513-3 0    25",
      "2 65459  53.1557 204.2949 0001238  86.0594 282.6374 15.30194378    17"
    ]
  },
  "65460": {
    "noradId": "65460",
    "tle": [
      "1 65460C 25195C   26002.78520833 -.00007614  00000+0 -25660-3 0    25",
      "2 65460  53.1572 204.5732 0001213  87.3071 128.4681 15.30200177    19"
    ]
  },
  "65461": {
    "noradId": "65461",
    "tle": [
      "1 65461C 25195D   26002.78590278 -.00004448  00000+0 -14992-3 0    24",
      "2 65461  53.1572 204.5148 0001257  88.8048 159.8838 15.30195224    17"
    ]
  },
  "65462": {
    "noradId": "65462",
    "tle": [
      "1 65462C 25195E   26002.78381944  .00015134  00000+0  51022-3 0    20",
      "2 65462  53.1561 204.4205 0001377  77.5373 212.0484 15.30166606    19"
    ]
  },
  "65463": {
    "noradId": "65463",
    "tle": [
      "1 65463C 25195F   26002.78381944 -.00007014  00000+0 -23642-3 0    28",
      "2 65463  53.1562 204.0383 0001182  86.7149  34.7862 15.30196951    16"
    ]
  },
  "65464": {
    "noradId": "65464",
    "tle": [
      "1 65464C 25195G   26002.78590278  .00000619  00000+0  20857-4 0    29",
      "2 65464  53.1571 203.9520 0001326  85.8076  87.9006 15.30183093    10"
    ]
  },
  "65465": {
    "noradId": "65465",
    "tle": [
      "1 65465C 25195H   26002.78798611  .00006822  00000+0  22993-3 0    25",
      "2 65465  53.1568 204.4691 0001296  84.0892 193.5361 15.30184507    14"
    ]
  },
  "65466": {
    "noradId": "65466",
    "tle": [
      "1 65466C 25195J   26002.78243056 -.00004639  00000+0 -15634-3 0    24",
      "2 65466  53.1558 204.3909 0001291  93.2178 206.1349 15.30195629    13"
    ]
  },
  "65467": {
    "noradId": "65467",
    "tle": [
      "1 65467C 25195K   26002.78173611  .00002686  00000+0  90523-4 0    23",
      "2 65467  53.1581 204.6441 0001300  84.0532  83.5138 15.30186164    14"
    ]
  },
  "65468": {
    "noradId": "65468",
    "tle": [
      "1 65468C 25195L   26002.78798611  .00006956  00000+0  23463-3 0    29",
      "2 65468  53.1566 203.9830 0001109  84.9406  77.0831 15.30159303    11"
    ]
  }
}