OBJECT_NAME,OBJECT_ID,EPOCH,MEAN_MOTION,ECCENTRICITY,INCLINATION,RA_OF_ASC_NODE,ARG_OF_PERICENTER,MEAN_ANOMALY,EPHEMERIS_TYPE,CLASSIFICATION_TYPE,NORAD_CAT_ID,ELEMENT_SET_NO,REV_AT_EPOCH,BSTAR,MEAN_MOTION_DOT,MEAN_MOTION_DDOT,RMS,DATA_SOURCE
STARLINK-35050,2025-194G,2026-01-02T18:49:42.000010,15.05636802,.0002165,97.6023,219.4959,89.5525,318.6681,0,C,65440,2,1,.5925E-3,.85318E-4,0,0.362,SpaceX-E
STARLINK-35065,2025-194H,2026-01-02T18:49:42.000010,15.05639159,.0001394,97.6012,219.3866,90.0720,63.1844,0,C,65441,2,1,.62729E-3,.90332E-4,0,0.368,SpaceX-E
STARLINK-34679,2025-194J,2026-01-02T18:52:41.999981,15.05636500,.0002376,97.6035,219.4780,87.2733,287.2404,0,C,65442,2,1,.66798E-3,.96189E-4,0,0.361,SpaceX-E
STARLINK-34678,2025-194K,2026-01-02T18:44:42.000029,15.05685455,.0001812,97.6015,219.3961,86.5559,77.8808,0,C,65443,2,1,-.10923E-2,-.15739E-3,0,0.904,SpaceX-E
STARLINK-35049,2025-194L,2026-01-02T18:48:41.999962,15.05635154,.0002131,97.6032,219.4295,87.6468,166.8433,0,C,65444,2,1,.69931E-3,.1007E-3,0,0.372,SpaceX-E
STARLINK-35029,2025-194M,2026-01-02T18:52:41.999981,15.05634586,.0002312,97.6033,219.4449,90.8106,208.7226,0,C,65445,2,1,.71671E-3,.1032E-3,0,0.369,SpaceX-E
STARLINK-34991,2025-194N,2026-01-02T18:46:42.000038,15.05633293,.0002446,97.6035,219.4605,92.5845,229.3684,0,C,65446,2,1,.70055E-3,.10087E-3,0,0.364,SpaceX-E
STARLINK-34920,2025-194P,2026-01-02T18:54:41.999990,15.05635570,.0002515,97.6027,219.4928,87.9251,324.1109,0,C,65447,2,1,.62733E-3,.90333E-4,0,0.361,SpaceX-E
STARLINK-35030,2025-194Q,2026-01-02T18:53:42.000029,15.05636094,.0001923,97.6028,219.4201,92.1902,151.1144,0,C,65448,2,1,.7191E-3,.10355E-3,0,0.372,SpaceX-E
STARLINK-35009,2025-194R,2026-01-02T18:55:42.000038,15.05634623,.0001735,97.6012,219.5128,86.2436,14.6575,0,C,65449,2,1,-.11431E-2,-.16447E-3,0,0.678,SpaceX-E
STARLINK-34970,2025-194S,2026-01-02T18:45:41.999990,15.05637977,.0002005,97.6011,219.3654,81.7482,11.4771,0,C,65450,2,1,.57498E-3,.82796E-4,0,0.364,SpaceX-E
STARLINK-35039,2025-194T,2026-01-02T18:47:42.000000,15.05574526,.0002096,97.6033,219.4356,88.6879,177.0631,0,C,65451,2,1,.15689E-2,.22563E-3,0,0.752,SpaceX-E
STARLINK-35084,2025-194U,2026-01-02T18:47:42.000000,15.05637448,.0001895,97.6020,219.4052,81.1671,109.5685,0,C,65452,2,1,.69216E-3,.99673E-4,0,0.371,SpaceX-E
STARLINK-34988,2025-194V,2026-01-02T18:50:41.999971,15.00437727,.0003063,97.6037,220.9948,33.1559,157.1772,0,C,65453,2,1,.65753E-3,.82519E-4,0,0.369,SpaceX-E
STARLINK-35059,2025-194W,2026-01-02T18:54:41.999990,15.00438245,.0004014,97.6047,220.5360,52.9469,192.7045,0,C,65454,2,1,.67967E-3,.85307E-4,0,0.369,SpaceX-E
STARLINK-34728,2025-194X,2026-01-02T18:52:41.999981,15.05637223,.0001964,97.6011,219.3830,81.7227,67.8330,0,C,65455,2,1,.63899E-3,.92013E-4,0,0.366,SpaceX-E
STARLINK-35005,2025-194Y,2026-01-02T18:45:41.999990,15.05651643,.0001764,97.6017,219.5004,90.0737,317.9828,0,C,65456,2,1,.60648E-3,.87365E-4,0,0.362,SpaceX-E
STARLINK-35076,2025-194Z,2026-01-02T18:46:42.000038,15.05637682,.0001748,97.6014,219.3909,91.3136,65.6646,0,C,65457,2,1,.66372E-3,.95576E-4,0,0.369,SpaceX-E
STARLINK-34784,2025-195A,2026-01-02T18:45:41.999990,15.30168853,.0001171,53.1560,204.1119,83.4383,357.4798,0,C,65458,2,1,.61174E-3,.18148E-3,0,0.247,SpaceX-E
STARLINK-34867,2025-195B,2026-01-02T18:55:42.000038,15.30194378,.0001238,53.1557,204.2949,86.0594,282.6374,0,C,65459,2,1,-.14513E-3,-.43059E-4,0,0.279,SpaceX-E
STARLINK-34850,2025-195C,2026-01-02T18:50:41.999971,15.30200177,.0001213,53.1572,204.5732,87.3071,128.4681,0,C,65460,2,1,-.2566E-3,-.76136E-4,0,0.262,SpaceX-E
STARLINK-35159,2025-195D,2026-01-02T18:51:42.000019,15.30195224,.0001257,53.1572,204.5148,88.8048,159.8838,0,C,65461,2,1,-.14992E-3,-.4448E-4,0,0.268,SpaceX-E
STARLINK-35180,2025-195E,2026-01-02T18:48:41.999962,15.30166606,.0001377,53.1561,204.4205,77.5373,212.0484,0,C,65462,2,1,.51022E-3,.15134E-3,0,0.254,SpaceX-E
STARLINK-35111,2025-195F,2026-01-02T18:48:41.999962,15.30196951,.0001182,53.1562,204.0383,86.7149,34.7862,0,C,65463,2,1,-.23642E-3,-.70144E-4,0,0.255,SpaceX-E
STARLINK-35107,2025-195G,2026-01-02T18:51:42.000019,15.30183093,.0001326,53.1571,203.9520,85.8076,87.9006,0,C,65464,2,1,.20857E-4,.61868E-5,0,0.296,SpaceX-E
STARLINK-35169,2025-195H,2026-01-02T18:54:41.999990,15.30184507,.0001296,53.1568,204.4691,84.0892,193.5361,0,C,65465,2,1,.22993E-3,.6822E-4,0,0.286,SpaceX-E
STARLINK-35027,2025-195J,2026-01-02T18:46:42.000038,15.30195629,.0001291,53.1558,204.3909,93.2178,206.1349,0,C,65466,2,1,-.15634E-3,-.46385E-4,0,0.268,SpaceX-E
STARLINK-34816,2025-195K,2026-01-02T18:45:41.999990,15.30186164,.00013,53.1581,204.6441,84.0532,83.5138,0,C,65467,2,1,.90523E-4,.26856E-4,0,0.272,SpaceX-E
STARLINK-35033,2025-195L,2026-01-02T18:54:41.999990,15.30159303,.0001109,53.1566,203.9830,84.9406,77.0831,0,C,65468,2,1,.23463E-3,.69561E-4,0,0.257,SpaceX-E
